{
  "norad_id": 57924,
  "name": "STARLINK-30487",
  "history": [
    {
      "epoch": "2026-03-28T20:00:01.999872Z",
      "apogee_km": 486.6712965173101,
      "perigee_km": 484.6365943294477,
      "latitude_deg": 26.47038314262181,
      "longitude_deg": -118.00089618151168,
      "height_km": 486.48635809241523,
      "semi_major_axis_km": 6863.790945423379,
      "eccentricity": 0.00014822,
      "inclination_deg": 42.9996,
      "raan_deg": 220.3306,
      "arg_perigee_deg": 279.5404,
      "mean_anomaly_deg": 219.8253,
      "mean_motion_rev_day": 15.26710494
    },
    {
      "epoch": "2026-03-29T04:00:01.999584Z",
      "apogee_km": 486.47212536844563,
      "perigee_km": 484.72461834277146,
      "latitude_deg": 4.329149723915987,
      "longitude_deg": 147.23249888237774,
      "height_km": 484.8153627255904,
      "semi_major_axis_km": 6863.735371855609,
      "eccentricity": 0.0001273,
      "inclination_deg": 42.9997,
      "raan_deg": 218.4482,
      "arg_perigee_deg": 257.0063,
      "mean_anomaly_deg": 276.6066,
      "mean_motion_rev_day": 15.26729036
    },
    {
      "epoch": "2026-03-30T01:13:31.304928Z",
      "apogee_km": 486.77303155949085,
      "perigee_km": 484.2690318363666,
      "latitude_deg": 1.6951626236087113e-05,
      "longitude_deg": 7.632231676236713,
      "height_km": 485.2146598206359,
      "semi_major_axis_km": 6863.658031697928,
      "eccentricity": 0.00018241,
      "inclination_deg": 43.0024,
      "raan_deg": 213.461,
      "arg_perigee_deg": 273.8364,
      "mean_anomaly_deg": 86.2279,
      "mean_motion_rev_day": 15.26754841
    },
    {
      "epoch": "2026-03-30T15:21:24.211584Z",
      "apogee_km": 487.11518690566936,
      "perigee_km": 483.98712966441144,
      "latitude_deg": 1.3787435877403912e-05,
      "longitude_deg": 151.75943012849223,
      "height_km": 484.9065280962051,
      "semi_major_axis_km": 6863.68815828504,
      "eccentricity": 0.00022787,
      "inclination_deg": 43.0011,
      "raan_deg": 210.139,
      "arg_perigee_deg": 285.6613,
      "mean_anomaly_deg": 74.3987,
      "mean_motion_rev_day": 15.26744789
    },
    {
      "epoch": "2026-03-30T16:55:36.624000Z",
      "apogee_km": 486.72730532948844,
      "perigee_km": 484.36715886943784,
      "latitude_deg": 4.280508952609194e-05,
      "longitude_deg": 127.77386043669314,
      "height_km": 485.0313966936698,
      "semi_major_axis_km": 6863.684232099463,
      "eccentricity": 0.00017193,
      "inclination_deg": 43.0,
      "raan_deg": 209.7696,
      "arg_perigee_deg": 284.3699,
      "mean_anomaly_deg": 75.6962,
      "mean_motion_rev_day": 15.26746099
    },
    {
      "epoch": "2026-03-31T14:54:32.265792Z",
      "apogee_km": 487.2200412129514,
      "perigee_km": 484.06270316174596,
      "latitude_deg": -3.151766383845573e-05,
      "longitude_deg": 151.97486788977315,
      "height_km": 485.3018998318488,
      "semi_major_axis_km": 6863.778372187348,
      "eccentricity": 0.00023,
      "inclination_deg": 43.0025,
      "raan_deg": 204.6053,
      "arg_perigee_deg": 274.2591,
      "mean_anomaly_deg": 85.7997,
      "mean_motion_rev_day": 15.26714689
    },
    {
      "epoch": "2026-04-01T14:27:39.240000Z",
      "apogee_km": 486.7220923158129,
      "perigee_km": 484.39392696854156,
      "latitude_deg": 5.124510259225574e-06,
      "longitude_deg": 152.19170534401974,
      "height_km": 485.3272518452698,
      "semi_major_axis_km": 6863.695009642177,
      "eccentricity": 0.0001696,
      "inclination_deg": 42.9991,
      "raan_deg": 199.0684,
      "arg_perigee_deg": 270.3781,
      "mean_anomaly_deg": 89.6876,
      "mean_motion_rev_day": 15.26742503
    },
    {
      "epoch": "2026-04-02T14:00:45.970560Z",
      "apogee_km": 486.5691246820079,
      "perigee_km": 484.4879240217133,
      "latitude_deg": 6.456434520998236e-05,
      "longitude_deg": 152.41238471752814,
      "height_km": 485.38413817028993,
      "semi_major_axis_km": 6863.66552435186,
      "eccentricity": 0.00015161,
      "inclination_deg": 42.9993,
      "raan_deg": 193.5343,
      "arg_perigee_deg": 265.6552,
      "mean_anomaly_deg": 94.4127,
      "mean_motion_rev_day": 15.26752341
    },
    {
      "epoch": "2026-04-03T15:08:06.060480Z",
      "apogee_km": 487.0224959813668,
      "perigee_km": 484.07660171460157,
      "latitude_deg": -5.084811116543522e-05,
      "longitude_deg": 128.64281984787044,
      "height_km": 485.17078129436777,
      "semi_major_axis_km": 6863.686548847983,
      "eccentricity": 0.0002146,
      "inclination_deg": 43.0007,
      "raan_deg": 187.6303,
      "arg_perigee_deg": 276.0885,
      "mean_anomaly_deg": 83.9721,
      "mean_motion_rev_day": 15.26745326
    },
    {
      "epoch": "2026-04-04T13:07:01.244352Z",
      "apogee_km": 486.5951757215671,
      "perigee_km": 484.5271434660817,
      "latitude_deg": -1.7577611438533815e-05,
      "longitude_deg": 152.842253501505,
      "height_km": 485.0985019783601,
      "semi_major_axis_km": 6863.698159593824,
      "eccentricity": 0.00015065,
      "inclination_deg": 42.9978,
      "raan_deg": 182.4624,
      "arg_perigee_deg": 283.3804,
      "mean_anomaly_deg": 76.6879,
      "mean_motion_rev_day": 15.26741452
    },
    {
      "epoch": "2026-04-05T14:14:22.147296Z",
      "apogee_km": 486.6198292420004,
      "perigee_km": 484.5524758284564,
      "latitude_deg": 6.37005977781846e-05,
      "longitude_deg": 129.06989978261308,
      "height_km": 485.2316979116402,
      "semi_major_axis_km": 6863.723152535228,
      "eccentricity": 0.0001506,
      "inclination_deg": 42.9996,
      "raan_deg": 176.5588,
      "arg_perigee_deg": 277.2967,
      "mean_anomaly_deg": 82.7714,
      "mean_motion_rev_day": 15.26733113
    },
    {
      "epoch": "2026-04-06T04:22:13.621440Z",
      "apogee_km": 486.44298569624425,
      "perigee_km": 484.61148553161274,
      "latitude_deg": 1.1562320682451577e-05,
      "longitude_deg": -86.7957707133275,
      "height_km": 485.2320909723003,
      "semi_major_axis_km": 6863.664235613928,
      "eccentricity": 0.00013342,
      "inclination_deg": 42.9985,
      "raan_deg": 173.238,
      "arg_perigee_deg": 274.4914,
      "mean_anomaly_deg": 85.5785,
      "mean_motion_rev_day": 15.26752771
    },
    {
      "epoch": "2026-04-07T11:46:23.060352Z",
      "apogee_km": 486.21603999745,
      "perigee_km": 484.879131513836,
      "latitude_deg": 5.20060606414572e-06,
      "longitude_deg": 153.49403037777233,
      "height_km": 485.1025365362141,
      "semi_major_axis_km": 6863.684585755643,
      "eccentricity": 9.739e-05,
      "inclination_deg": 42.9992,
      "raan_deg": 165.8568,
      "arg_perigee_deg": 289.3388,
      "mean_anomaly_deg": 70.7358,
      "mean_motion_rev_day": 15.26745981
    },
    {
      "epoch": "2026-04-08T11:19:29.890272Z",
      "apogee_km": 486.17251713412315,
      "perigee_km": 484.8962860737083,
      "latitude_deg": 5.731538837345723e-05,
      "longitude_deg": 153.71338295594106,
      "height_km": 485.17491897086364,
      "semi_major_axis_km": 6863.671401603915,
      "eccentricity": 9.297e-05,
      "inclination_deg": 42.9999,
      "raan_deg": 160.3218,
      "arg_perigee_deg": 282.2914,
      "mean_anomaly_deg": 77.7834,
      "mean_motion_rev_day": 15.2675038
    },
    {
      "epoch": "2026-04-09T20:17:51.782208Z",
      "apogee_km": 486.3415916947297,
      "perigee_km": 484.7698060666853,
      "latitude_deg": 3.475984337037574e-05,
      "longitude_deg": 10.019695775917615,
      "height_km": 485.08909209830205,
      "semi_major_axis_km": 6863.692698880707,
      "eccentricity": 0.0001145,
      "inclination_deg": 43.0012,
      "raan_deg": 152.5735,
      "arg_perigee_deg": 288.0335,
      "mean_anomaly_deg": 72.0392,
      "mean_motion_rev_day": 15.26743274
    },
    {
      "epoch": "2026-04-10T04:08:54.346272Z",
      "apogee_km": 486.2984018270563,
      "perigee_km": 484.8281972228988,
      "latitude_deg": 7.704509577504231e-06,
      "longitude_deg": -109.90873483184905,
      "height_km": 485.1456013516146,
      "semi_major_axis_km": 6863.700299524978,
      "eccentricity": 0.0001071,
      "inclination_deg": 43.0005,
      "raan_deg": 150.7282,
      "arg_perigee_deg": 285.3225,
      "mean_anomaly_deg": 74.7508,
      "mean_motion_rev_day": 15.26740738
    },
    {
      "epoch": "2026-04-11T19:24:06.350112Z",
      "apogee_km": 486.2224785241842,
      "perigee_km": 484.90464801603594,
      "latitude_deg": -3.7042969150561043e-06,
      "longitude_deg": 10.454256609095784,
      "height_km": 485.2621299921755,
      "semi_major_axis_km": 6863.700563270109,
      "eccentricity": 9.6e-05,
      "inclination_deg": 43.0013,
      "raan_deg": 141.5033,
      "arg_perigee_deg": 276.7976,
      "mean_anomaly_deg": 83.2766,
      "mean_motion_rev_day": 15.2674065
    },
    {
      "epoch": "2026-04-13T02:48:16.014528Z",
      "apogee_km": 486.2642014674175,
      "perigee_km": 484.8753990334544,
      "latitude_deg": 9.24889001695296e-06,
      "longitude_deg": -109.25626114563894,
      "height_km": 485.2810657238241,
      "semi_major_axis_km": 6863.706800250436,
      "eccentricity": 0.00010117,
      "inclination_deg": 43.0009,
      "raan_deg": 134.1227,
      "arg_perigee_deg": 275.3953,
      "mean_anomaly_deg": 84.6783,
      "mean_motion_rev_day": 15.26738569
    },
    {
      "epoch": "2026-04-14T18:03:27.690912Z",
      "apogee_km": 486.42638549654566,
      "perigee_km": 484.65143890565105,
      "latitude_deg": -2.363605978041786e-05,
      "longitude_deg": 11.107180415229216,
      "height_km": 485.1617533206807,
      "semi_major_axis_km": 6863.675912201098,
      "eccentricity": 0.0001293,
      "inclination_deg": 43.0006,
      "raan_deg": 124.8969,
      "arg_perigee_deg": 279.9882,
      "mean_anomaly_deg": 80.0823,
      "mean_motion_rev_day": 15.26748875
    },
    {
      "epoch": "2026-04-15T01:54:30.223872Z",
      "apogee_km": 486.3237343587607,
      "perigee_km": 484.7958754499896,
      "latitude_deg": -1.7497080188963114e-05,
      "longitude_deg": -108.82108344558532,
      "height_km": 485.1849597081146,
      "semi_major_axis_km": 6863.696804904375,
      "eccentricity": 0.0001113,
      "inclination_deg": 43.0006,
      "raan_deg": 123.0516,
      "arg_perigee_deg": 281.4353,
      "mean_anomaly_deg": 78.6373,
      "mean_motion_rev_day": 15.26741904
    },
    {
      "epoch": "2026-04-16T17:09:42.270048Z",
      "apogee_km": 486.23541934447803,
      "perigee_km": 484.8379753796953,
      "latitude_deg": -5.093827874998601e-05,
      "longitude_deg": 11.541514047701552,
      "height_km": 485.1820053603535,
      "semi_major_axis_km": 6863.673697362086,
      "eccentricity": 0.0001018,
      "inclination_deg": 43.0032,
      "raan_deg": 113.8265,
      "arg_perigee_deg": 280.849,
      "mean_anomaly_deg": 79.2246,
      "mean_motion_rev_day": 15.26749614
    }
  ]
}